SAOCOM 1A               
1 43641U 18076A   26071.79846288  .00000144  00000+0  24718-4 0  9992
2 43641  97.8899 259.9268 0001414  86.4245 273.7130 14.82143277401827
H-2A R/B                
1 43682U 18084L   26071.58914021  .00021397  00000+0  50679-3 0  9991
2 43682  98.8732 289.5971 0025250  15.4084 344.7921 15.41481901406227
SAOCOM 1B               
1 46265U 20059A   26071.89721801  .00001039  00000+0  13710-3 0  9998
2 46265  97.8899 259.1219 0001418  86.5422 273.5953 14.82153875299227
CSS (TIANHE)            
1 48274U 21035A   26071.65904515  .00026654  00000+0  31305-3 0  9994
2 48274  41.4661 190.0925 0006713 290.2953  69.7164 15.60827652278071
COSMOS 2550             
1 48865U 21056A   26071.38646080 -.00000190  00000+0  60433-7 0  9999
2 48865  67.1461  32.7743 0008377 269.6455  90.3740 15.33837293263879
CZ-2C R/B               
1 52794U 22058K   26071.85526560  .00035429  00000+0  51258-3 0  9993
2 52794  50.1891 302.0034 0042121 214.2350 145.5903 15.54474633210622
CZ-2C R/B               
1 54039U 22132E   26071.57486682  .00045817  00000+0  51672-3 0  9991
2 54039  97.2966  74.9796 0020438  81.9771 278.3806 15.62131197190824
GSLV R/B                
1 54149U 22138AN  26071.72930291  .00004343  00000+0  37509-3 0  9998
2 54149  87.3879 165.3456 0023383 136.3077 224.0011 14.96799800184380
XRISM                   
1 57800U 23137A   26071.81036378  .00005698  00000+0  32222-3 0  9999
2 57800  31.0011 263.4786 0007902  70.1790 289.9700 15.11538051138261
ACS3                    
1 59588U 24077B   26071.73799041  .00023675  00000+0  18956-1 0  9993
2 59588  97.2052  12.1643 0062272  69.1866 291.5953 13.89757749 94629
SZ-21 MODULE            
1 66515U 25246C   26071.68367939  .00040419  00000+0  34395-3 0  9993
2 66515  41.4730 184.9262 0001119 307.7188  52.3552 15.68803443 18544
